start=new Date('2022-11-15T00:00:00.000Z').valueOf();
sats=[{"REV_AT_EPOCH":"1829","ELEMENT_SET_NO":"999","ECCENTRICITY":"0.00017650","CENTER_NAME":"EARTH","ARG_OF_PERICENTER":"88.8447","FILE":"3656014","INCLINATION":"97.6556","OBJECT_NAME":"STARLINK-4375","PERIAPSIS":"561.765","GP_ID":"217788253","PERIOD":"95.919","MEAN_MOTION_DDOT":"0.0000000000000","MEAN_ELEMENT_THEORY":"SGP4","RCS_SIZE":"LARGE","MEAN_ANOMALY":"271.2979","EPOCH":"2022-11-14T16:48:04.542048","TLE_LINE1":"1 53192U 22084D   22318.70005257 -.00000808  00000-0 -58342-4 0  9992","OBJECT_ID":"2022-084D","SEMIMAJOR_AXIS":"6941.126","LAUNCH_DATE":"2022-07-22","SITE":"AFWTR","RA_OF_ASC_NODE":"17.8245","EPHEMERIS_TYPE":"0","TLE_LINE2":"2 53192  97.6556  17.8245 0001765  88.8447 271.2979 15.01266896 18296","DECAY_DATE":null,"TIME_SYSTEM":"UTC","OBJECT_TYPE":"PAYLOAD","COUNTRY_CODE":"US","MEAN_MOTION":"15.01266896","MEAN_MOTION_DOT":"-0.00000808","APOAPSIS":"564.216","BSTAR":"-0.00005834200000","REF_FRAME":"TEME","CLASSIFICATION_TYPE":"U","NORAD_CAT_ID":"53192"},{"REF_FRAME":"TEME","CLASSIFICATION_TYPE":"U","NORAD_CAT_ID":"53193","BSTAR":"-0.00015485000000","APOAPSIS":"564.278","MEAN_MOTION_DOT":"-0.00002048","MEAN_MOTION":"15.01271068","TIME_SYSTEM":"UTC","DECAY_DATE":null,"COUNTRY_CODE":"US","OBJECT_TYPE":"PAYLOAD","TLE_LINE2":"2 53193  97.6542  17.8444 0001874  66.1671 293.9750 15.01271068 18646","EPHEMERIS_TYPE":"0","LAUNCH_DATE":"2022-07-22","RA_OF_ASC_NODE":"17.8444","SITE":"AFWTR","OBJECT_ID":"2022-084E","SEMIMAJOR_AXIS":"6941.113","MEAN_ANOMALY":"293.9750","TLE_LINE1":"1 53193U 22084E   22318.70561044 -.00002048  00000-0 -15485-3 0  9992","EPOCH":"2022-11-14T16:56:04.742016","MEAN_MOTION_DDOT":"0.0000000000000","RCS_SIZE":"LARGE","MEAN_ELEMENT_THEORY":"SGP4","GP_ID":"217787764","PERIOD":"95.919","PERIAPSIS":"561.677","FILE":"3656014","INCLINATION":"97.6542","OBJECT_NAME":"STARLINK-4351","ELEMENT_SET_NO":"999","ECCENTRICITY":"0.00018740","CENTER_NAME":"EARTH","REV_AT_EPOCH":"1864","ARG_OF_PERICENTER":"66.1671"},{"PERIAPSIS":"561.525","GP_ID":"217788103","PERIOD":"95.920","ELEMENT_SET_NO":"999","CENTER_NAME":"EARTH","ECCENTRICITY":"0.00021610","REV_AT_EPOCH":"1762","ARG_OF_PERICENTER":"56.5028","FILE":"3656014","INCLINATION":"97.6547","OBJECT_NAME":"STARLINK-4382","SEMIMAJOR_AXIS":"6941.160","OBJECT_ID":"2022-084F","LAUNCH_DATE":"2022-07-22","SITE":"AFWTR","RA_OF_ASC_NODE":"17.8376","MEAN_MOTION_DDOT":"0.0000000000000","RCS_SIZE":"LARGE","MEAN_ELEMENT_THEORY":"SGP4","MEAN_ANOMALY":"303.6402","TLE_LINE1":"1 53194U 22084F   22318.70375589  .00002904  00000-0  23058-3 0  9994","EPOCH":"2022-11-14T16:53:24.508896","TIME_SYSTEM":"UTC","DECAY_DATE":null,"COUNTRY_CODE":"US","OBJECT_TYPE":"PAYLOAD","MEAN_MOTION":"15.01255581","EPHEMERIS_TYPE":"0","TLE_LINE2":"2 53194  97.6547  17.8376 0002161  56.5028 303.6402 15.01255581 17627","BSTAR":"0.00023058000000","NORAD_CAT_ID":"53194","CLASSIFICATION_TYPE":"U","REF_FRAME":"TEME","MEAN_MOTION_DOT":"0.00002904","APOAPSIS":"564.525"},{"MEAN_MOTION_DDOT":"0.0000000000000","RCS_SIZE":"LARGE","MEAN_ELEMENT_THEORY":"SGP4","MEAN_ANOMALY":"302.9851","TLE_LINE1":"1 53195U 22084G   22318.72516529  .00001024  00000-0  86080-4 0  9995","EPOCH":"2022-11-14T17:24:14.281056","SEMIMAJOR_AXIS":"6943.627","OBJECT_ID":"2022-084G","LAUNCH_DATE":"2022-07-22","RA_OF_ASC_NODE":"17.9509","SITE":"AFWTR","ELEMENT_SET_NO":"999","CENTER_NAME":"EARTH","ECCENTRICITY":"0.00017010","REV_AT_EPOCH":"1830","ARG_OF_PERICENTER":"57.1537","FILE":"3656014","INCLINATION":"97.6606","OBJECT_NAME":"STARLINK-4404","PERIAPSIS":"564.311","GP_ID":"217787568","PERIOD":"95.971","MEAN_MOTION_DOT":"0.00001024","APOAPSIS":"566.673","BSTAR":"0.00008608000000","CLASSIFICATION_TYPE":"U","REF_FRAME":"TEME","NORAD_CAT_ID":"53195","EPHEMERIS_TYPE":"0","TLE_LINE2":"2 53195  97.6606  17.9509 0001701  57.1537 302.9851 15.00455833 18301","DECAY_DATE":null,"TIME_SYSTEM":"UTC","COUNTRY_CODE":"US","OBJECT_TYPE":"PAYLOAD","MEAN_MOTION":"15.00455833"},{"TLE_LINE2":"2 53196  97.6559  17.8255 0001546  64.2773 295.8611 15.01261769 18289","EPHEMERIS_TYPE":"0","MEAN_MOTION":"15.01261769","OBJECT_TYPE":"PAYLOAD","COUNTRY_CODE":"US","TIME_SYSTEM":"UTC","DECAY_DATE":null,"APOAPSIS":"564.079","MEAN_MOTION_DOT":"0.00000779","CLASSIFICATION_TYPE":"U","REF_FRAME":"TEME","NORAD_CAT_ID":"53196","BSTAR":"0.00006523300000","OBJECT_NAME":"STARLINK-4407","INCLINATION":"97.6559","FILE":"3656014","ARG_OF_PERICENTER":"64.2773","REV_AT_EPOCH":"1828","ECCENTRICITY":"0.00015460","ELEMENT_SET_NO":"999","CENTER_NAME":"EARTH","PERIOD":"95.919","GP_ID":"217788567","PERIAPSIS":"561.933","EPOCH":"2022-11-14T16:48:25.901856","TLE_LINE1":"1 53196U 22084H   22318.70029979  .00000779  00000-0  65233-4 0  9995","MEAN_ANOMALY":"295.8611","MEAN_ELEMENT_THEORY":"SGP4","RCS_SIZE":"LARGE","MEAN_MOTION_DDOT":"0.0000000000000","RA_OF_ASC_NODE":"17.8255","SITE":"AFWTR","LAUNCH_DATE":"2022-07-22","SEMIMAJOR_AXIS":"6941.141","OBJECT_ID":"2022-084H"},{"OBJECT_TYPE":"PAYLOAD","COUNTRY_CODE":"US","TIME_SYSTEM":"UTC","DECAY_DATE":null,"MEAN_MOTION":"15.01276984","EPHEMERIS_TYPE":"0","TLE_LINE2":"2 53197  97.6571  17.8157 0001957  92.6584 267.4864 15.01276984 17623","BSTAR":"-0.00044677000000","NORAD_CAT_ID":"53197","CLASSIFICATION_TYPE":"U","REF_FRAME":"TEME","MEAN_MOTION_DOT":"-0.00005795","APOAPSIS":"564.318","PERIAPSIS":"561.601","PERIOD":"95.918","GP_ID":"217787398","ARG_OF_PERICENTER":"92.6584","REV_AT_EPOCH":"1762","ELEMENT_SET_NO":"999","ECCENTRICITY":"0.00019570","CENTER_NAME":"EARTH","OBJECT_NAME":"STARLINK-4403","INCLINATION":"97.6571","FILE":"3656014","SEMIMAJOR_AXIS":"6941.094","OBJECT_ID":"2022-084J","SITE":"AFWTR","RA_OF_ASC_NODE":"17.8157","LAUNCH_DATE":"2022-07-22","MEAN_ELEMENT_THEORY":"SGP4","RCS_SIZE":"LARGE","MEAN_MOTION_DDOT":"0.0000000000000","EPOCH":"2022-11-14T16:40:05.111904","TLE_LINE1":"1 53197U 22084J   22318.69450361 -.00005795  00000-0 -44677-3 0  9990","MEAN_ANOMALY":"267.4864"},{"INCLINATION":"97.6557","FILE":"3656014","OBJECT_NAME":"STARLINK-4385","REV_AT_EPOCH":"1829","ELEMENT_SET_NO":"999","ECCENTRICITY":"0.00018120","CENTER_NAME":"EARTH","ARG_OF_PERICENTER":"98.6858","GP_ID":"217788416","PERIOD":"95.920","PERIAPSIS":"561.766","MEAN_ANOMALY":"261.4572","EPOCH":"2022-11-14T18:21:23.614560","TLE_LINE1":"1 53198U 22084K   22318.76485665  .00000202  00000-0  20340-4 0  9992","MEAN_MOTION_DDOT":"0.0000000000000","MEAN_ELEMENT_THEORY":"SGP4","RCS_SIZE":"LARGE","LAUNCH_DATE":"2022-07-22","SITE":"AFWTR","RA_OF_ASC_NODE":"17.8872","SEMIMAJOR_AXIS":"6941.159","OBJECT_ID":"2022-084K","TLE_LINE2":"2 53198  97.6557  17.8872 0001812  98.6858 261.4572 15.01255982 18291","EPHEMERIS_TYPE":"0","MEAN_MOTION":"15.01255982","TIME_SYSTEM":"UTC","DECAY_DATE":null,"OBJECT_TYPE":"PAYLOAD","COUNTRY_CODE":"US","APOAPSIS":"564.282","MEAN_MOTION_DOT":"0.00000202","NORAD_CAT_ID":"53198","REF_FRAME":"TEME","CLASSIFICATION_TYPE":"U","BSTAR":"0.00002034000000"},{"PERIAPSIS":"561.669","PERIOD":"95.920","GP_ID":"217787934","ARG_OF_PERICENTER":"112.6449","ELEMENT_SET_NO":"999","ECCENTRICITY":"0.00019580","CENTER_NAME":"EARTH","REV_AT_EPOCH":"1762","OBJECT_NAME":"STARLINK-4395","FILE":"3656014","INCLINATION":"97.6556","SEMIMAJOR_AXIS":"6941.163","OBJECT_ID":"2022-084L","RA_OF_ASC_NODE":"17.8146","SITE":"AFWTR","LAUNCH_DATE":"2022-07-22","RCS_SIZE":"LARGE","MEAN_ELEMENT_THEORY":"SGP4","MEAN_MOTION_DDOT":"0.0000000000000","TLE_LINE1":"1 53199U 22084L   22318.69264987 -.00000821  00000-0 -59306-4 0  9990","EPOCH":"2022-11-14T16:37:24.948768","MEAN_ANOMALY":"247.4983","COUNTRY_CODE":"US","OBJECT_TYPE":"PAYLOAD","DECAY_DATE":null,"TIME_SYSTEM":"UTC","MEAN_MOTION":"15.01254872","EPHEMERIS_TYPE":"0","TLE_LINE2":"2 53199  97.6556  17.8146 0001958 112.6449 247.4983 15.01254872 17622","BSTAR":"-0.00005930600000","NORAD_CAT_ID":"53199","REF_FRAME":"TEME","CLASSIFICATION_TYPE":"U","MEAN_MOTION_DOT":"-0.00000821","APOAPSIS":"564.387"},{"OBJECT_NAME":"STARLINK-4417","INCLINATION":"97.6553","FILE":"3656014","ARG_OF_PERICENTER":"87.8530","REV_AT_EPOCH":"1828","ELEMENT_SET_NO":"999","ECCENTRICITY":"0.00017320","CENTER_NAME":"EARTH","PERIOD":"95.919","GP_ID":"217788254","PERIAPSIS":"561.801","EPOCH":"2022-11-14T16:42:44.396352","TLE_LINE1":"1 53200U 22084M   22318.69634718 -.00000290  00000-0 -17983-4 0  9991","MEAN_ANOMALY":"272.2893","MEAN_ELEMENT_THEORY":"SGP4","RCS_SIZE":"LARGE","MEAN_MOTION_DDOT":"0.0000000000000","SITE":"AFWTR","RA_OF_ASC_NODE":"17.8169","LAUNCH_DATE":"2022-07-22","SEMIMAJOR_AXIS":"6941.138","OBJECT_ID":"2022-084M","TLE_LINE2":"2 53200  97.6553  17.8169 0001732  87.8530 272.2893 15.01262833 18286","EPHEMERIS_TYPE":"0","MEAN_MOTION":"15.01262833","OBJECT_TYPE":"PAYLOAD","COUNTRY_CODE":"US","DECAY_DATE":null,"TIME_SYSTEM":"UTC","APOAPSIS":"564.205","MEAN_MOTION_DOT":"-0.00000290","REF_FRAME":"TEME","CLASSIFICATION_TYPE":"U","NORAD_CAT_ID":"53200","BSTAR":"-0.00001798300000"},{"LAUNCH_DATE":"2022-07-22","RA_OF_ASC_NODE":"17.8748","SITE":"AFWTR","OBJECT_ID":"2022-084N","SEMIMAJOR_AXIS":"6941.160","MEAN_ANOMALY":"223.8542","TLE_LINE1":"1 53201U 22084N   22318.75559982 -.00003462  00000-0 -26510-3 0  9997","EPOCH":"2022-11-14T18:08:03.824448","MEAN_MOTION_DDOT":"0.0000000000000","RCS_SIZE":"LARGE","MEAN_ELEMENT_THEORY":"SGP4","GP_ID":"217787765","PERIOD":"95.920","PERIAPSIS":"561.847","FILE":"3656014","INCLINATION":"97.6568","OBJECT_NAME":"STARLINK-4405","ECCENTRICITY":"0.00016980","ELEMENT_SET_NO":"999","CENTER_NAME":"EARTH","REV_AT_EPOCH":"1763","ARG_OF_PERICENTER":"136.2817","NORAD_CAT_ID":"53201","REF_FRAME":"TEME","CLASSIFICATION_TYPE":"U","BSTAR":"-0.00026510000000","APOAPSIS":"564.204","MEAN_MOTION_DOT":"-0.00003462","MEAN_MOTION":"15.01255623","DECAY_DATE":null,"TIME_SYSTEM":"UTC","COUNTRY_CODE":"US","OBJECT_TYPE":"PAYLOAD","TLE_LINE2":"2 53201  97.6568  17.8748 0001698 136.2817 223.8542 15.01255623 17634","EPHEMERIS_TYPE":"0"}];
